GLOBALSTAR M063         
1 26081U 00008A   24301.94327470 -.00000126  00000+0 -63850-3 0  9996
2 26081  51.9989   3.2151 0004682 224.3000 306.8432 11.86161834130013
GLOBALSTAR M062         
1 26082U 00008B   24301.83502012  .00000006  00000+0  74381-3 0  9998
2 26082  51.9858  59.0487 0006469 340.9483 159.6937 12.43452899467717
GLOBALSTAR M060         
1 26083U 00008C   24301.86418851 -.00000111  00000+0 -19905-3 0  9999
2 26083  52.0047 346.1064 0003209  19.1603 152.1346 12.17644797124060
GLOBALSTAR M064         
1 26084U 00008D   24301.77576414 -.00000035  00000+0  68022-3 0  9998
2 26084  52.0008 105.2219 0001187  12.0087 348.0774 11.88525518139462
GLOBALSTAR M065         
1 31571U 07020A   24301.47799523 -.00000177  00000+0 -40806-3 0  9999
2 31571  51.9890 214.5476 0009989 145.5407  26.0666 12.61979544804029
GLOBALSTAR M069         
1 31573U 07020C   24301.91722578 -.00000057  00000+0  27971-3 0  9990
2 31573  51.9929 170.2435 0001654  49.8909 323.2478 12.53303106805199
GLOBALSTAR M072         
1 31574U 07020D   24301.96349793 -.00000046  00000+0  32470-3 0  9998
2 31574  52.0081 264.7926 0000565  18.1598  22.4451 12.62267837803498
GLOBALSTAR M071         
1 31576U 07020F   24301.90880280 -.00000035  00000+0  38147-3 0  9990
2 31576  52.0049 174.1700 0001531  41.3080 332.9082 12.62261713466408
